{
    "links": {
        "self": "http://www.neowsapp.com/rest/v1/neo/3484924?api_key=iIulBulltgU6a56xZRHN4H3l9WmuAYTsLGpBGhQ2"
    },
    "id": "3484924",
    "neo_reference_id": "3484924",
    "name": "(2010 AD3)",
    "designation": "2010 AD3",
    "nasa_jpl_url": "http://ssd.jpl.nasa.gov/sbdb.cgi?sstr=3484924",
    "absolute_magnitude_h": 24.0,
    "estimated_diameter": {
        "kilometers": {
            "estimated_diameter_min": 0.0421264611,
            "estimated_diameter_max": 0.0941976306
        },
        "meters": {
            "estimated_diameter_min": 42.1264610556,
            "estimated_diameter_max": 94.1976305719
        },
        "miles": {
            "estimated_diameter_min": 0.0261761612,
            "estimated_diameter_max": 0.0585316759
        },
        "feet": {
            "estimated_diameter_min": 138.2101784897,
            "estimated_diameter_max": 309.0473542854
        }
    },
    "is_potentially_hazardous_asteroid": false,
    "close_approach_data": [
        {
            "close_approach_date": "2010-01-26",
            "close_approach_date_full": "2010-Jan-26 11:41",
            "epoch_date_close_approach": 1264506060000,
            "relative_velocity": {
                "kilometers_per_second": "6.6925876979",
                "kilometers_per_hour": "24093.3157123639",
                "miles_per_hour": "14970.6494213852"
            },
            "miss_distance": {
                "astronomical": "0.1086959975",
                "lunar": "42.2827430275",
                "kilometers": "16260689.703525325",
                "miles": "10103924.056586485"
            },
            "orbiting_body": "Earth"
        },
        {
            "close_approach_date": "2015-03-12",
            "close_approach_date_full": "2015-Mar-12 19:29",
            "epoch_date_close_approach": 1426188540000,
            "relative_velocity": {
                "kilometers_per_second": "18.9749369873",
                "kilometers_per_hour": "68309.7731541418",
                "miles_per_hour": "42445.0365468055"
            },
            "miss_distance": {
                "astronomical": "0.4732841832",
                "lunar": "184.1075472648",
                "kilometers": "70802305.711409784",
                "miles": "43994512.7164076592"
            },
            "orbiting_body": "Earth"
        }
    ],
    "orbital_data": {
        "orbit_id": "11",
        "orbit_determination_date": "2017-04-06 08:58:38",
        "first_observation_date": "2010-01-08",
        "last_observation_date": "2010-02-06",
        "data_arc_in_days": 29,
        "observations_used": 37,
        "orbit_uncertainty": "7",
        "minimum_orbit_intersection": ".106842",
        "jupiter_tisserand_invariant": "2.925",
        "epoch_osculation": "2459000.5",
        "eccentricity": ".6328353095882848",
        "semi_major_axis": "2.953173902530536",
        "inclination": "4.489178696875833",
        "ascending_node_longitude": "277.7143627262744",
        "orbital_period": "1853.668029568272",
        "perihelion_distance": "1.084301181654581",
        "perihelion_argument": "209.6893241759689",
        "aphelion_distance": "4.82204662340649",
        "perihelion_time": "2458928.588673068137",
        "mean_anomaly": "13.9658651293135",
        "mean_motion": ".1942095317271268",
        "equinox": "J2000",
        "orbit_class": {
            "orbit_class_type": "AMO",
            "orbit_class_description": "Near-Earth asteroid orbits similar to that of 1221 Amor",
            "orbit_class_range": "1.017 AU < q (perihelion) < 1.3 AU"
        }
    },
    "is_sentry_object": false
}